GALAXY 25 (G-25)        
1 24812U 97026A   23353.55455647 -.00000101  00000+0  00000+0 0  9999
2 24812   5.0786  78.0326 0001890 145.8407 251.8646  0.99033421 97209
INTELSAT 5 (IS-5)       
1 24916U 97046A   23353.64158594 -.00000059  00000+0  00000+0 0  9999
2 24916   8.4099  56.9528 0006728 187.7978 240.3504  1.00271180 96484
GALAXY 11 (G-11)        
1 26038U 99071A   23354.48135627 -.00000047  00000+0  00000+0 0  9998
2 26038   4.4216  81.4200 0001628 259.5428  87.4269  1.00270752 87954
INTELSAT 9 (IS-9)       
1 26451U 00043A   23354.08014187 -.00000284  00000+0  00000+0 0  9994
2 26451   8.3957  57.1486 0004352 208.4217 161.6929  1.00271549 85726
INTELSAT 1R (IS-1R)     
1 26608U 00072A   23354.12139069 -.00000133  00000+0  00000+0 0  9995
2 26608   5.7904  74.6377 0002877 242.5658 332.0321  1.00270082 84522
INTELSAT 10 (IS-10)     
1 26766U 01019A   23354.48361887  .00000039  00000+0  00000+0 0  9990
2 26766   6.8927  68.3938 0004649 198.0326 174.2905  1.00272340 82816
INTELSAT 901 (IS-901)   
1 26824U 01024A   23354.44280521 -.00000193  00000+0  00000+0 0  9994
2 26824   0.0015  11.4910 0001178 267.0142 302.1849  1.00269693 82468
INTELSAT 902 (IS-902)   
1 26900U 01039A   23354.29504051 -.00000275  00000+0  00000+0 0  9996
2 26900   3.8011  82.7492 0004164 200.7813 221.2197  1.00272198 81643
INTELSAT 904 (IS-904)   
1 27380U 02007A   23354.44237008 -.00000207  00000+0  00000+0 0  9992
2 27380   4.6245  79.8982 0003040 189.4299 309.1829  1.00271511 79966
DIRECTV 5 (TEMPO 1)     
1 27426U 02023A   23353.71006616 -.00000048  00000+0  00000+0 0  9992
2 27426   2.5359  86.6536 0003307 185.2314 321.6543  1.00271053 79175
INTELSAT 905 (IS-905)   
1 27438U 02027A   23354.44341435 -.00000177  00000+0  00000+0 0  9994
2 27438   4.4490  80.5729 0002815 190.8921 312.4413  1.00270457 78845
GALAXY 3C (G-3C)        
1 27445U 02030A   23354.18577788 -.00000143  00000+0  00000+0 0  9992
2 27445   1.3882  89.0516 0001340 195.5022 135.9905  1.00270253 78824
INTELSAT 906 (IS-906)   
1 27513U 02041A   23354.10294185  .00000022  00000+0  00000+0 0  9994
2 27513   3.4740  84.0450 0006165 181.8729 283.7086  1.00271632 77845
GALAXY 12 (G-12)        
1 27715U 03013B   23353.59116539 -.00000271  00000+0  00000+0 0  9993
2 27715   4.6570  79.6305 0002057 251.3946 112.9571  0.98986710 42954
GALAXY 23 (G-23)        
1 27854U 03034A   23353.70797760  .00000021  00000+0  00000+0 0  9996
2 27854   0.8381  91.5332 0002735 179.5901 310.9029  1.00271794 79416
GALAXY 13 (HORIZONS-1)  
1 27954U 03044A   23354.13192043  .00000142  00000+0  00000+0 0  9993
2 27954   0.0401  92.7800 0001588 263.0376 350.1252  1.00271836 74028
INTELSAT 10-02          
1 28358U 04022A   23354.37640682 -.00000002  00000+0  00000+0 0  9998
2 28358   0.0192 277.4152 0001048 353.4670 312.3490  1.00269492 71507
XM-3 (RHYTHM)           
1 28626U 05008A   23354.43131818 -.00000196  00000+0  00000+0 0  9998
2 28626   0.0090 168.8476 0000431  45.9063 304.1871  1.00267968 68940
DIRECTV 8               
1 28659U 05019A   23354.39563453  .00000011  00000+0  00000+0 0  9990
2 28659   0.0177 326.3075 0002428 313.9110 191.8885  1.00268872 68061
GALAXY 28 (G-28)        
1 28702U 05022A   23353.53257880 -.00000176  00000+0  00000+0 0  9995
2 28702   0.9427  90.0260 0006970 181.9846 278.5788  1.00272547 42851
GALAXY 14 (G-14)        
1 28790U 05030A   23353.73852259  .00000164  00000+0  00000+0 0  9990
2 28790   2.6657  85.9872 0001571 188.3941 112.4607  1.00273281 67177
GALAXY 15 (G-15)        
1 28884U 05041A   23353.77150424 -.00000048  00000+0  00000+0 0  9997
2 28884   1.1600  85.2659 0014343 120.5834 358.4166  0.98941669 66448
SPACEWAY 2              
1 28903U 05046B   23353.56108318  .00000111  00000+0  00000+0 0  9996
2 28903   3.1816  82.4533 0000579 202.8136 225.7139  1.00271177 42215
GALAXY 16 (G-16)        
1 29236U 06023A   23353.64070903 -.00000118  00000+0  00000+0 0  9997
2 29236   0.0207 266.4129 0002396 353.4458 319.7694  1.00271024 64135
DIRECTV 9S              
1 29494U 06043A   23353.64027390 -.00000104  00000+0  00000+0 0  9992
2 29494   0.0661  83.6416 0002944 180.9986 312.6321  1.00271553 62977
XM-4 (BLUES)            
1 29520U 06049A   23354.37727705 -.00000154  00000+0  00000+0 0  9991
2 29520   0.4615  95.1827 0003544 227.9636 264.6114  0.98815308 62867
GALAXY 17 (G-17)        
1 31307U 07016B   23353.50802209 -.00000197  00000+0  00000+0 0  9996
2 31307   0.6549  91.7084 0004949 197.7123 256.3092  1.00271795 60673
DIRECTV 10              
1 31862U 07032A   23354.50234189 -.00000094  00000+0  00000+0 0  9993
2 31862   0.0560 152.6559 0001414  83.6155 290.6194  1.00276927 60285
SPACEWAY 3              
1 32018U 07036A   23354.43697466 -.00000276  00000+0  00000+0 0  9996
2 32018   1.6406  87.6281 0000343  88.2208  13.4555  1.00270417 60004
INTELSAT 11 (IS-11)     
1 32253U 07044B   23354.43967237 -.00000259  00000+0  00000+0 0  9993
2 32253   1.1992  89.9919 0004350 190.0787 283.9629  1.00272784 59406
HORIZONS-2              
1 32388U 07063B   23354.43358078 -.00000244  00000+0  00000+0 0  9994
2 32388   0.2467  91.1848 0002188 186.3802 253.4697  1.00269201 58755
DIRECTV 11              
1 32729U 08013A   23354.51646560 -.00000116  00000+0  00000+0 0  9992
2 32729   0.0405 157.8490 0001317 349.4941  28.2384  1.00268424 57819
GALAXY 18 (G-18)        
1 32951U 08024A   23353.70754250  .00000034  00000+0  00000+0 0  9995
2 32951   0.0179  13.9758 0003099 253.8414 311.9341  1.00271021 56951
INTELSAT 25 (IS-25)     
1 33153U 08034A   23354.44202199 -.00000214  00000+0  00000+0 0  9994
2 33153   0.3543  90.9322 0003051 178.5816 306.8813  1.00271585 56517
GALAXY 19 (G-19)        
1 33376U 08045A   23353.64105711 -.00000130  00000+0  00000+0 0  9993
2 33376   0.0181  18.6643 0002867 246.0609 317.0245  1.00271432 55701
FM-5                    
1 35493U 09034A   23354.43114413 -.00000191  00000+0  00000+0 0  9998
2 35493   0.0158 356.2063 0000804 210.2961 311.3340  1.00270074 52854
INTELSAT 14 (IS-14)     
1 36097U 09064A   23354.43932428 -.00000264  00000+0  00000+0 0  9997
2 36097   0.0142 315.8739 0002557 316.9753 289.0715  1.00270463 51576
INTELSAT 15 (IS-15)     
1 36106U 09067A   23353.53410612 -.00000176  00000+0  00000+0 0  9999
2 36106   0.0187   9.4299 0001999 270.1522  85.7148  1.00268992 32098
DIRECTV 12              
1 36131U 09075A   23354.50234296 -.00000095  00000+0  00000+0 0  9996
2 36131   0.0123 121.5892 0000440  99.2741 306.0793  1.00276037 51268
INTELSAT 16 (IS-16)     
1 36397U 10006A   23354.43305865 -.00000235  00000+0  00000+0 0  9995
2 36397   0.0165   5.3892 0001983 258.1593 264.8988  1.00271383 50592
XM-5                    
1 37185U 10053A   23354.49370985 -.00000013  00000+0  00000+0 0  9998
2 37185   0.0203 293.4048 0000737 227.8678 350.0834  1.00269166 48329
INTELSAT 17 (IS-17)     
1 37238U 10065B   23354.46142807  .00000009  00000+0  00000+0 0  9991
2 37238   0.0260  41.3305 0002809 246.6153  32.9242  1.00268064 47791
INTELSAT NEW DAWN       
1 37392U 11016A   23353.73852259  .00000165  00000+0  00000+0 0  9990
2 37392   0.0147 358.4282 0001331 276.4510 111.8518  1.00270682 46385
INTELSAT 18 (IS-18)     
1 37834U 11056A   23354.12591587  .00000062  00000+0  00000+0 0  9999
2 37834   0.0157 346.5875 0001979 284.4754  42.7211  1.00271734 44716
INTELSAT 22 (IS-22)     
1 38098U 12011A   23353.45984194 -.00000050  00000+0  00000+0 0  9997
2 38098   0.0125  97.7047 0003092 172.3915  55.3446  1.00271986 42685
INTELSAT 19 (IS-19)     
1 38356U 12030A   23353.76506455 -.00000047  00000+0  00000+0 0  9995
2 38356   0.0099 344.9694 0002957 282.5972 261.9667  1.00271216 42386
INTELSAT 20 (IS-20)     
1 38740U 12043A   23353.45914576 -.00000016  00000+0  00000+0 0  9995
2 38740   0.0037  52.6524 0002197 129.9704 138.9667  1.00270575 41618
INTELSAT 21 (IS-21)     
1 38749U 12045A   23354.43671359 -.00000275  00000+0  00000+0 0  9991
2 38749   0.0380 268.8968 0002331 350.3622 288.7166  1.00272618 41517
INTELSAT 23 (IS-23)     
1 38867U 12057A   23354.43775787 -.00000275  00000+0  00000+0 0  9995
2 38867   0.0173 242.6602 0000686  81.3171 229.3936  1.00266868 40980
FM-6                    
1 39360U 13058A   23354.49273101 -.00000007  00000+0  00000+0 0  9998
2 39360   0.0022   2.8867 0000353 161.5735 345.5764  1.00269304 37220
INTELSAT 30 (IS-30)     
1 40271U 14062A   23354.18582866 -.00000141  00000+0  00000+0 0  9993
2 40271   0.0096  10.3719 0001030   2.9565  47.0230  1.00269354 33645
DIRECTV 14              
1 40333U 14078B   23354.50429737 -.00000117  00000+0  00000+0 0  9995
2 40333   0.0213 304.5366 0000395 272.0765 314.5356  1.00275310 33129
DIRECTV 15              
1 40663U 15026A   23354.50234211 -.00000093  00000+0  00000+0 0  9999
2 40663   0.0178 348.3990 0000340 203.0186 335.3797  1.00270290 31417
SKY MEXICO-1            
1 40664U 15026B   23353.78795153 -.00000225  00000+0  00000+0 0  9993
2 40664   0.0320 275.1939 0002395   0.2151  17.6101  1.00269868 31405
INTELSAT 34 (IS-34)     
1 40874U 15039A   23353.52460788 -.00000277  00000+0  00000+0 0  9992
2 40874   0.0151   7.0260 0000594 311.5813 262.6354  1.00270914 30484
INTELSAT 31 (IS-31)     
1 41581U 16035A   23354.35769691 -.00000140  00000+0  00000+0 0  9991
2 41581   0.0154  24.7837 0001723 153.2195 304.3891  1.00263432 27560
INTELSAT 36 (IS-36)     
1 41747U 16053A   23354.46186318 -.00000015  00000+0  00000+0 0  9997
2 41747   0.0106   2.8914 0001740  16.8081 303.8455  1.00269919 26825
INTELSAT 33E (IS-33E)   
1 41748U 16053B   23354.10207162  .00000058  00000+0  00000+0 0  9996
2 41748   0.0233 293.0793 0001965 326.4436 285.6404  1.00271732 27096
INTELSAT 32E (IS-32E)   
1 41945U 17007B   23354.08153424 -.00000260  00000+0  00000+0 0  9999
2 41945   0.0103  49.1450 0000338  90.8364 294.5975  1.00268958 25126
INTELSAT 35E (IS-35E)   
1 42818U 17041A   23353.72512109 -.00000229  00000+0  00000+0 0  9991
2 42818   0.0137 309.8719 0001800 319.5985  45.1196  1.00272414 23677
